{
    "links": {
        "self": "http://www.neowsapp.com/rest/v1/neo/3091724?api_key=iIulBulltgU6a56xZRHN4H3l9WmuAYTsLGpBGhQ2"
    },
    "id": "3091724",
    "neo_reference_id": "3091724",
    "name": "(2001 PG14)",
    "designation": "2001 PG14",
    "nasa_jpl_url": "http://ssd.jpl.nasa.gov/sbdb.cgi?sstr=3091724",
    "absolute_magnitude_h": 22.5,
    "estimated_diameter": {
        "kilometers": {
            "estimated_diameter_min": 0.0840533402,
            "estimated_diameter_max": 0.1879489824
        },
        "meters": {
            "estimated_diameter_min": 84.0533402073,
            "estimated_diameter_max": 187.9489824394
        },
        "miles": {
            "estimated_diameter_min": 0.0522283081,
            "estimated_diameter_max": 0.1167860472
        },
        "feet": {
            "estimated_diameter_min": 275.7655606856,
            "estimated_diameter_max": 616.6305395464
        }
    },
    "is_potentially_hazardous_asteroid": false,
    "close_approach_data": [
        {
            "close_approach_date": "1992-08-26",
            "close_approach_date_full": "1992-Aug-26 16:01",
            "epoch_date_close_approach": 714844860000,
            "relative_velocity": {
                "kilometers_per_second": "17.3331504959",
                "kilometers_per_hour": "62399.3417850744",
                "miles_per_hour": "38772.5243441758"
            },
            "miss_distance": {
                "astronomical": "0.3347463185",
                "lunar": "130.2163178965",
                "kilometers": "50077336.237941595",
                "miles": "31116613.841700211"
            },
            "orbiting_body": "Earth"
        },
        {
            "close_approach_date": "2001-08-07",
            "close_approach_date_full": "2001-Aug-07 23:46",
            "epoch_date_close_approach": 997227960000,
            "relative_velocity": {
                "kilometers_per_second": "8.5510894995",
                "kilometers_per_hour": "30783.9221981528",
                "miles_per_hour": "19127.9321014022"
            },
            "miss_distance": {
                "astronomical": "0.079847872",
                "lunar": "31.060822208",
                "kilometers": "11945071.57523264",
                "miles": "7422323.299144832"
            },
            "orbiting_body": "Earth"
        },
        {
            "close_approach_date": "2010-04-27",
            "close_approach_date_full": "2010-Apr-27 05:27",
            "epoch_date_close_approach": 1272346020000,
            "relative_velocity": {
                "kilometers_per_second": "10.7310262089",
                "kilometers_per_hour": "38631.6943521772",
                "miles_per_hour": "24004.2325267736"
            },
            "miss_distance": {
                "astronomical": "0.2201965809",
                "lunar": "85.6564699701",
                "kilometers": "32940939.483922683",
                "miles": "20468550.6560037054"
            },
            "orbiting_body": "Earth"
        }
    ],
    "orbital_data": {
        "orbit_id": "14",
        "orbit_determination_date": "2017-04-06 09:16:15",
        "first_observation_date": "2001-08-14",
        "last_observation_date": "2001-09-13",
        "data_arc_in_days": 30,
        "observations_used": 69,
        "orbit_uncertainty": "7",
        "minimum_orbit_intersection": ".0773219",
        "jupiter_tisserand_invariant": "4.516",
        "epoch_osculation": "2459000.5",
        "eccentricity": ".3355131904967941",
        "semi_major_axis": "1.473477689081236",
        "inclination": "10.73747958387371",
        "ascending_node_longitude": "154.6792468752626",
        "orbital_period": "653.3016774468163",
        "perihelion_distance": ".9791064884917475",
        "perihelion_argument": "115.4729365632502",
        "aphelion_distance": "1.967848889670725",
        "perihelion_time": "2459275.756222968757",
        "mean_anomaly": "208.3208543776936",
        "mean_motion": ".5510471079868102",
        "equinox": "J2000",
        "orbit_class": {
            "orbit_class_type": "APO",
            "orbit_class_description": "Near-Earth asteroid orbits which cross the Earth’s orbit similar to that of 1862 Apollo",
            "orbit_class_range": "a (semi-major axis) > 1.0 AU; q (perihelion) < 1.017 AU"
        }
    },
    "is_sentry_object": false
}